TIROS N [P]             
1 11060U 78096A   09170.88047345  .00000007  00000-0  25614-4 0  2154
2 11060  98.9304 141.4017 0011305  12.3356 347.8097 14.17478215799330
NOAA 1 [-]              
1 04793U 70106A   09170.96151483 -.00000031  00000-0  10000-3 0  1936
2 04793 102.0760 161.7239 0032290  71.8954 288.5630 12.53929312763263
NOAA 2 [-]              
1 06235U 72082A   09169.91196674 -.00000027  00000-0  10000-3 0  2967
2 06235 101.4024 187.7595 0003430 286.1409  73.9285 12.53002990677681
NOAA 3 [-]              
1 06920U 73086A   09170.19251139 -.00000030  00000-0  10000-3 0  1832
2 06920 101.7260 192.4226 0006435 164.3844 195.7421 12.40297646612526
NOAA 4 [-]              
1 07529U 74089A   09170.88346096 -.00000027  00000-0  10000-3 0  1954
2 07529 101.4422 195.5185 0009093 314.4286  45.6042 12.53052174582389
NOAA 5 [-]              
1 09057U 76077A   09170.55790776 -.00000031  00000-0  10000-3 0   698
2 09057 101.9148 212.7612 0009601 346.3801  13.7001 12.37838860486779
NOAA 6 [P]              
1 11416U 79057A   09170.00491048  .00000009  00000-0  19350-4 0  8769
2 11416  98.4076 184.8656 0009375 257.2201 102.7947 14.31921981561977
NOAA 7 [-]              
1 12553U 81059A   09170.90321205  .00000016  00000-0  29188-4 0  9942
2 12553  98.6539 124.5180 0011224 313.9325  46.0922 14.16765280445911
NOAA 8 [-]              
1 13923U 83022A   09170.66528540 -.00000011  00000-0  13088-4 0  8880
2 13923  98.5589 200.4869 0016460 100.0589 260.2444 14.27705369365205
NOAA 9 [P]              
1 15427U 84123A   09170.19770996 -.00000019  00000-0  11075-4 0  7157
2 15427  98.4412 167.8021 0015746  55.8016 304.4659 14.15321559265248
NOAA 10 [-]             
1 16969U 86073A   09170.54048078 -.00000030  00000-0  59704-5 0  6551
2 16969  98.6906 197.1749 0012009 186.4349 173.6691 14.27388572183840
NOAA 11 [-]             
1 19531U 88089A   09170.47029685 -.00000235  00000-0 -98899-4 0  6693
2 19531  98.7854 260.3884 0012442 101.9493 258.3095 14.14895918 69842
NOAA 12 [B]             
1 21263U 91032A   09170.56388523  .00000007  00000-0  21640-4 0  1576
2 21263  98.7704 178.6246 0012939 135.1058 225.1170 14.25582670940733
NOAA 13 [-]             
1 22739U 93050A   09170.81998369  .00000031  00000-0  40737-4 0  7436
2 22739  98.8710 250.9116 0009058 190.0320 170.0670 14.12220699817338
NOAA 14 [-]             
1 23455U 94089A   09170.36464365 -.00000327  00000-0 -14951-3 0  6582
2 23455  98.9084 248.0369 0009512 179.0673 181.0535 14.13762000746230
NOAA 15 [+]             
1 25338U 98030A   09170.44068503  .00000079  00000-0  52468-4 0  9713
2 25338  98.5848 159.5972 0011630  54.6954 305.5335 14.24767216577099
NOAA 16 [+]             
1 26536U 00055A   09170.41738325  .00000340  00000-0  20909-3 0  4481
2 26536  99.1761 174.1367 0009637 276.7350  83.2747 14.12523885450617
NOAA 17 [+]             
1 27453U 02032A   09170.31919628  .00000114  00000-0  67827-4 0  4540
2 27453  98.4833 229.3157 0012774 115.7819 244.4673 14.24071291363058
NOAA 18 [+]             
1 28654U 05018A   09170.31583511  .00000350  00000-0  21844-3 0  9432
2 28654  98.9076 113.5384 0014386   1.2525 358.8685 14.11266421210259
NOAA 19 [S]             
1 33591U 09005A   09170.29629262 -.00000180  00000-0 -76016-4 0  1469
2 33591  98.7465 116.0021 0013177 235.1395 124.8553 14.10964317 18733
